ONEWEB-0156             
1 48052U 21025L   24243.30534957 -.00000274  00000+0 -78565-3 0  9998
2 48052  87.8860  90.7363 0001735  82.9978 277.1348 13.13469930167471
ONEWEB-0161             
1 48053U 21025M   24243.81160752  .00000258  00000+0  67060-3 0  9991
2 48053  87.8863  90.6444 0001829  88.1994 271.9345 13.13471933167480
ONEWEB-0158             
1 48054U 21025N   24243.31644948 -.00000320  00000+0 -91031-3 0  9998
2 48054  87.8861  90.7320 0001687  78.1819 281.9499 13.13469888167533
ONEWEB-0157             
1 48055U 21025P   24243.11174689  .00000386  00000+0  10221-2 0  9998
2 48055  87.8858  90.7871 0001938  83.2531 276.8819 13.13469093167445
ONEWEB-0162             
1 48056U 21025Q   24243.30375939 -.00000451  00000+0 -12688-2 0  9995
2 48056  87.8859  90.7433 0001798  81.7599 278.3734 13.13469475167449
ONEWEB-0155             
1 48057U 21025R   24243.32438395  .00000167  00000+0  42205-3 0  9995
2 48057  87.8857  90.7508 0001845  91.3090 268.8251 13.13473563167583
ONEWEB-0149             
1 48058U 21025S   24243.26884705  .00000315  00000+0  82823-3 0  9994
2 48058  87.8859  90.7579 0001884  77.3430 282.7909 13.13471251167384
ONEWEB-0148             
1 48059U 21025T   24243.31012567 -.00000189  00000+0 -55135-3 0  9997
2 48059  87.8864  90.7625 0002301  75.1781 284.9603 13.13469890167519
ONEWEB-0160             
1 48060U 21025U   24243.32598882  .00000195  00000+0  49947-3 0  9998
2 48060  87.8862  90.7555 0000947  59.3742 300.7481 13.13469371167465
ONEWEB-0163             
1 48061U 21025V   24243.31170749 -.00000099  00000+0 -30724-3 0  9994
2 48061  87.8860  90.7487 0001977  87.5573 272.5782 13.13468999167585
ONEWEB-0159             
1 48062U 21025W   24243.30059929 -.00000275  00000+0 -78841-3 0  9998
2 48062  87.8860  90.7332 0001964  82.8299 277.3053 13.13470208167506
ONEWEB-0164             
1 48063U 21025X   24243.28313137  .00000076  00000+0  17443-3 0  9998
2 48063  87.8858  90.7475 0001648  85.3120 274.8197 13.13470996167484
ONEWEB-0167             
1 48064U 21025Y   24243.31248829 -.00000105  00000+0 -32113-3 0  9994
2 48064  87.8862  90.7545 0001930  86.0339 274.1010 13.13471250167472
ONEWEB-0166             
1 48065U 21025Z   24243.33392061  .00000398  00000+0  10546-2 0  9992
2 48065  87.8856  90.7306 0001834  78.9969 281.1367 13.13470289167556
ONEWEB-0151             
1 48066U 21025AA  24243.86875249  .00000315  00000+0  82736-3 0  9995
2 48066  87.8858  90.6390 0001604  87.1775 272.9538 13.13471032167570
ONEWEB-0170             
1 48067U 21025AB  24243.11491072  .00000342  00000+0  90137-3 0  9996
2 48067  87.8858  90.7924 0001129  94.5314 265.5945 13.13469342167423
ONEWEB-0168             
1 48068U 21025AC  24243.32916385  .00000339  00000+0  89220-3 0  9996
2 48068  87.8860  90.7215 0001752  84.4153 275.7176 13.13469939167466
ONEWEB-0173             
1 48069U 21025AD  24243.32122591  .00000067  00000+0  14767-3 0  9997
2 48069  87.8863  90.7328 0001984  96.2750 263.8605 13.13469930167709
ONEWEB-0171             
1 48070U 21025AE  24243.28154057  .00000049  00000+0  10007-3 0  9999
2 48070  87.8861  90.7769 0001696  87.8445 272.2879 13.13467840167519
ONEWEB-0172             
1 48071U 21025AF  24243.33709341  .00000379  00000+0  10026-2 0  9994
2 48071  87.8862  90.7321 0001705  89.7930 270.3395 13.13470176168414
ONEWEB-0174             
1 48072U 21025AG  24243.31964096  .00000034  00000+0  58629-4 0  9994
2 48072  87.8863  90.7498 0001829  80.3443 279.7892 13.13469894167738
ONEWEB-0175             
1 48073U 21025AH  24243.27202889  .00000280  00000+0  73213-3 0  9993
2 48073  87.8856  90.7435 0001485  94.0275 266.1024 13.13469225167381
ONEWEB-0177             
1 48074U 21025AJ  24243.81796776  .00000122  00000+0  29945-3 0  9995
2 48074  87.8859  90.6434 0002116  88.2684 271.8687 13.13470697167646
ONEWEB-0178             
1 48075U 21025AK  24243.30231949 -.00000294  00000+0 -84058-3 0  9994
2 48075  87.8864  90.7692 0001899  86.5809 273.5537 13.13468965167623
ONEWEB-0108             
1 48076U 21025AL  24243.87192614  .00000461  00000+0  12263-2 0  9994
2 48076  87.8855  90.6296 0001689  75.6013 284.5303 13.13469800167639
ONEWEB-0169             
1 48077U 21025AM  24243.29423328 -.00000389  00000+0 -11000-2 0  9999
2 48077  87.8863  90.7564 0001752  75.4497 284.6827 13.13470110166203
ONEWEB-0176             
1 48210U 21031A   24243.42426619  .00000119  00000+0  28522-3 0  9993
2 48210  87.8928  60.1184 0001715  90.7284 269.4043 13.14504022162169
ONEWEB-0184             
1 48211U 21031B   24243.77789429  .00000180  00000+0  45041-3 0  9996
2 48211  87.8924  60.0286 0001676 125.0953 235.0334 13.14504426162181
ONEWEB-0179             
1 48212U 21031C   24243.44329394 -.00000411  00000+0 -11439-2 0  9994
2 48212  87.8928  60.1006 0001879  91.1233 269.0112 13.14501630162181
ONEWEB-0180             
1 48213U 21031D   24243.40049422  .00000229  00000+0  58257-3 0  9997
2 48213  87.8926  60.1060 0001926  92.2347 267.9003 13.14500670162067
ONEWEB-0218             
1 48214U 21031E   24243.42268722  .00000113  00000+0  26916-3 0  9995
2 48214  87.8924  60.1030 0002056 122.7225 237.4103 13.14500525162222
ONEWEB-0209             
1 48215U 21031F   24243.41159025  .00000242  00000+0  61825-3 0  9991
2 48215  87.8930  60.1410 0001924  90.8130 269.3220 13.14500403162224
ONEWEB-0198             
1 48216U 21031G   24243.39573799  .00000188  00000+0  47212-3 0  9990
2 48216  87.8927  60.1483 0001943 102.0396 258.0952 13.14501054162334
ONEWEB-0189             
1 48217U 21031H   24243.40841271  .00000224  00000+0  57047-3 0  9994
2 48217  87.8925  60.1210 0002049 102.1972 257.9388 13.14504203162071
ONEWEB-0196             
1 48218U 21031J   24243.76680097 -.00000003  00000+0 -41530-4 0  9999
2 48218  87.8929  60.0546 0001714  92.4930 267.6395 13.14503330162111
ONEWEB-0183             
1 48219U 21031K   24243.43695486 -.00000120  00000+0 -35907-3 0  9992
2 48219  87.8928  60.1357 0001874  86.8759 273.2585 13.14499779162176
ONEWEB-0185             
1 48220U 21031L   24243.23476636 -.00000005  00000+0 -48969-4 0  9991
2 48220  87.8925  60.1482 0001926  88.5979 271.5372 13.14504267162078
ONEWEB-0187             
1 48221U 21031M   24243.43299512 -.00000094  00000+0 -28688-3 0  9993
2 48221  87.8925  60.1424 0001906  89.2962 270.8386 13.14500001162117
ONEWEB-0192             
1 48222U 21031N   24243.41316917 -.00000031  00000+0 -11759-3 0  9993
2 48222  87.8929  60.1436 0001711  94.0271 266.1054 13.14500924162020
ONEWEB-0219             
1 48223U 21031P   24243.39256037  .00000251  00000+0  64144-3 0  9995
2 48223  87.8925  60.1215 0001937  90.8127 269.3225 13.14504078162227
ONEWEB-0202             
1 48224U 21031Q   24243.75411238 -.00000099  00000+0 -30030-3 0  9991
2 48224  87.8922  60.0674 0002188 112.6487 247.4875 13.14500745162263
ONEWEB-0204             
1 48225U 21031R   24243.40761633  .00000272  00000+0  70021-3 0  9996
2 48225  87.8927  60.1492 0001788  78.0199 282.1131 13.14504283162103
ONEWEB-0205             
1 48226U 21031S   24243.23080018 -.00000006  00000+0 -50789-4 0  9996
2 48226  87.8923  60.1554 0001927  92.4188 267.7162 13.14502672162093
ONEWEB-0206             
1 48227U 21031T   24243.43220759  .00000129  00000+0  31447-3 0  9990
2 48227  87.8922  60.1029 0002102  88.5676 271.5695 13.14501261162079
ONEWEB-0182             
1 48228U 21031U   24243.42744211  .00000052  00000+0  10461-3 0  9992
2 48228  87.8927  60.1344 0001785  84.3771 275.7563 13.14503827162284
ONEWEB-0186             
1 48229U 21031V   24243.43855787  .00000631  00000+0  16665-2 0  9999
2 48229  87.8930  60.0937 0001742  90.3367 269.7962 13.14499751162238
ONEWEB-0181             
1 48230U 21031W   24243.72081317  .00000293  00000+0  75700-3 0  9993
2 48230  87.8927  60.1092 0001801  95.6647 264.4688 13.14504164162135
ONEWEB-0188             
1 48231U 21031X   24243.22605726 -.00000161  00000+0 -46993-3 0  9993
2 48231  87.8926  60.2026 0001828  90.0465 270.0874 13.14501253161965
ONEWEB-0220             
1 48232U 21031Y   24243.72239860  .00000225  00000+0  57192-3 0  9993
2 48232  87.8922  60.0638 0002107  90.8610 269.2761 13.14503780162299
ONEWEB-0165             
1 48233U 21031Z   24243.75094313 -.00000146  00000+0 -42725-3 0  9999
2 48233  87.8925  60.0791 0001887  94.3493 265.7852 13.14503804162250
ONEWEB-0199             
1 48234U 21031AA  24243.43060676 -.00000149  00000+0 -43530-3 0  9998
2 48234  87.8926  60.1119 0001536  89.4764 270.6541 13.14502861162111
ONEWEB-0203             
1 48235U 21031AB  24243.42109422  .00000146  00000+0  36001-3 0  9991
2 48235  87.8928  60.1156 0001347 101.4307 258.6974 13.14504057162129
ONEWEB-0197             
1 48236U 21031AC  24243.24428153  .00000168  00000+0  41875-3 0  9996
2 48236  87.8927  60.1601 0001809  79.1906 280.9427 13.14504147162012
ONEWEB-0194             
1 48237U 21031AD  24243.22287158 -.00000443  00000+0 -12299-2 0  9998
2 48237  87.8928  60.1579 0001448  92.1363 267.9933 13.14501456162184
ONEWEB-0193             
1 48238U 21031AE  24243.39096151  .00000074  00000+0  16586-3 0  9990
2 48238  87.8926  60.1325 0001692  94.8796 265.2527 13.14504901162157
ONEWEB-0191             
1 48239U 21031AF  24243.78266530  .00000241  00000+0  61516-3 0  9993
2 48239  87.8922  60.0355 0001757  94.6957 265.4374 13.14502964162064
ONEWEB-0195             
1 48240U 21031AG  24243.22683500 -.00000100  00000+0 -30301-3 0  9998
2 48240  87.8926  60.1456 0002008 100.0293 260.1063 13.14504562161970
ONEWEB-0201             
1 48241U 21031AH  24243.44409150 -.00000116  00000+0 -34818-3 0  9994
2 48241  87.8926  60.1388 0001849  92.7103 267.4238 13.14503573162239
ONEWEB-0207             
1 48242U 21031AJ  24243.72794655  .00000241  00000+0  61580-3 0  9996
2 48242  87.8925  60.0475 0001929  85.2954 274.8396 13.14503034162188
